STARLINK-6219           
1 56892U 23083S   26191.99557030 -.00001379  00000+0 -40584-4 0  9999
2 56892  43.0019 112.6457 0001330 243.5242 116.5474 15.27578876170444
STARLINK-6216           
1 56893U 23083T   26192.14596221 -.00000632  00000+0 -13447-4 0  9992
2 56893  43.0035 107.7893 0001175 259.0525 101.0195 15.27573471170631
STARLINK-6144           
1 56894U 23083U   26191.96601227  .00000151  00000+0  15027-4 0  9995
2 56894  43.0021 112.4299 0001408 255.7483 104.3212 15.27590392170564
STARLINK-6208           
1 56895U 23083V   26191.92634573  .00000287  00000+0  19954-4 0  9995
2 56895  43.0023 112.9890 0001260 291.6776  68.3941 15.27570922170430
STARLINK-6202           
1 56896U 23083W   26190.22240179  .00004570  00000+0  17534-3 0  9993
2 56896  43.0023 122.5574 0001276 258.7323 101.3385 15.27607549170285
STARLINK-6200           
1 56897U 23083X   26191.91984986 -.00004816  00000+0 -16477-3 0  9992
2 56897  43.0043 112.9431 0003559 318.8979  41.1604 15.27730781170543
STARLINK-6205           
1 56898U 23083Y   26192.11449723 -.00000367  00000+0 -38260-5 0  9994
2 56898  43.0033 104.9928 0001049 241.2586 118.8161 15.27560374170651
STARLINK-6203           
1 56899U 23083Z   26192.13489213 -.00000418  00000+0 -56464-5 0  9998
2 56899  43.0038 104.2998 0001208 286.9211  73.1508 15.27587375170653
STARLINK-6207           
1 56900U 23083AA  26192.06966891  .00001544  00000+0  65625-4 0  9992
2 56900  43.0034  94.2369 0001422 265.3709  94.6981 15.27583659170635
STARLINK-6185           
1 56901U 23083AB  26191.97599259  .00000674  00000+0  34014-4 0  9993
2 56901  43.0021 105.6797 0001327 269.2662  90.8038 15.27584561170633
STARLINK-6195           
1 56902U 23083AC  26192.07223162  .00001541  00000+0  65529-4 0  9992
2 56902  43.0041  94.2484 0002142 247.4415 112.6211 15.27584402170777
STARLINK-6192           
1 56903U 23083AD  26192.14517106 -.00000077  00000+0  67306-5 0  9995
2 56903  43.0046 104.3693 0001546 273.4043  86.6632 15.27574834170664
STARLINK-6193           
1 56904U 23083AE  26191.92090399 -.00000428  00000+0 -60438-5 0  9991
2 56904  43.0045  94.8341 0001365 269.6857  90.3839 15.27571085170640
STARLINK-6183           
1 56905U 23083AF  26192.14647170 -.00000143  00000+0  43117-5 0  9990
2 56905  43.0024  93.0991 0001289 253.0977 106.9733 15.27583093170688
STARLINK-6098           
1 56906U 23083AG  26192.15418350 -.00000138  00000+0  45054-5 0  9994
2 56906  43.0000  93.1519 0001378 347.7729  12.3089 15.27583808170683
STARLINK-6110           
1 56907U 23083AH  26192.08493934  .00000319  00000+0  21098-4 0  9999
2 56907  43.0025  93.4929 0001354 254.0599 106.0103 15.27584374170786
STARLINK-6186           
1 56908U 23083AJ  26192.10293436  .00002080  00000+0  85080-4 0  9996
2 56908  43.0041  93.6198 0001661 265.6360  94.4302 15.27578560170679
STARLINK-5999           
1 56909U 23083AK  26190.17989538  .00001225  00000+0  54051-4 0  9991
2 56909  43.0024 104.9880 0001340 264.7159  95.3540 15.27567352170485
STARLINK-6179           
1 56910U 23083AL  26192.11063823 -.00000363  00000+0 -36464-5 0  9992
2 56910  43.0052  93.6794 0001454 263.6651  96.4035 15.27571222170669
STARLINK-6116           
1 56911U 23083AM  26191.63751095 -.00000356  00000+0 -34301-5 0  9994
2 56911  43.0020  96.1438 0000907 253.4306 106.6446 15.27575320170601
STARLINK-5805           
1 56912U 23083AN  26191.92475395 -.00000025  00000+0  86381-5 0  9990
2 56912  43.0048  94.8635 0001584 275.9412  84.1259 15.27578365170643
STARLINK-5950           
1 56913U 23083AP  26191.96829625 -.00001560  00000+0 -47174-4 0  9996
2 56913  43.0023  94.3290 0000996 261.8232  98.2507 15.27584754170651
STARLINK-5961           
1 56914U 23083AQ  26192.07979992  .00000054  00000+0  11493-4 0  9993
2 56914  43.0047  93.4448 0001006 294.3014  65.7732 15.27583702170678
STARLINK-5965           
1 56915U 23083AR  26192.10679917  .00000003  00000+0  96492-5 0  9999
2 56915  43.0039  93.6476 0001162 251.6983 108.3742 15.27570627170674
STARLINK-5973           
1 56916U 23083AS  26191.12469801  .00000489  00000+0  27310-4 0  9990
2 56916  43.0046  99.1729 0001716 263.4593  96.6063 15.27588959170490
STARLINK-5971           
1 56917U 23083AT  26191.92860976 -.00000167  00000+0  34803-5 0  9997
2 56917  43.0051  94.8924 0002831 291.0273  69.0276 15.27580231170649
STARLINK-5951           
1 56918U 23083AU  26190.13233193  .00000005  00000+0  97129-5 0  9995
2 56918  43.0022 104.6227 0001219 266.1459  93.9253 15.27580439170373
STARLINK-5966           
1 56919U 23083AV  26192.08365399 -.00001196  00000+0 -33952-4 0  9993
2 56919  43.0006  93.4746 0000693 295.6343  64.4437 15.27576743170674
STARLINK-5960           
1 56920U 23083AW  26191.97086836  .00000465  00000+0  26430-4 0  9997
2 56920  43.0039  94.3409 0001111 262.2336  97.8390 15.27587569170650
STARLINK-5958           
1 56921U 23083AX  26192.15289681 -.00000301  00000+0 -14046-5 0  9994
2 56921  43.0020  93.1309 0000944 285.1149  74.9598 15.27580293170682
